      2.10          N: GNSS NAV DATA                        RINEX VERSION / TYPE
fic2rin                                 04/13/2019 00:19:42 PGM / RUN BY / DATE
                                                            END OF HEADER
11 19  4 12 21 59 44.0-6.276704370975e-04 7.275957614183e-12 0.000000000000e+00
    9.000000000000e+00-5.971875000000e+01 6.053823594624e-09-6.486366201474e-02
   -2.963468432426e-06 1.653588679619e-02 3.900378942490e-06 5.153697004318e+03
    5.111840000000e+05-2.123415470123e-07-2.552744330859e+00-9.685754776001e-08
    9.091311147658e-01 2.786562500000e+02 1.875885592519e+00-9.313959392365e-09
   -5.357366012941e-11 1.000000000000e+00 2.048000000000e+03 0.000000000000e+00
    2.400000000000e+00 0.000000000000e+00-1.210719347000e-08 9.000000000000e+00
    5.040000000000e+05 4.000000000000e+00
13 19  4 12 21 59 44.0-6.804289296269e-05 1.477928890381e-12 0.000000000000e+00
    3.000000000000e+01 2.115625000000e+01 4.497330188997e-09 1.757920739884e+00
    1.125037670135e-06 3.595238900743e-03 7.411465048790e-06 5.153656877518e+03
    5.111840000000e+05-9.313225746155e-09 1.066395596800e-01-1.043081283569e-07
    9.683863262975e-01 2.401250000000e+02 1.330216809555e+00-7.974260731396e-09
    1.660783464012e-10 1.000000000000e+00 2.048000000000e+03 0.000000000000e+00
    2.400000000000e+00 0.000000000000e+00-1.117587089539e-08 3.000000000000e+01
    5.040000000000e+05 4.000000000000e+00
28 19  4 12 21 59 44.0 7.673907093704e-04 3.410605131648e-13 0.000000000000e+00
    2.900000000000e+01 9.293750000000e+01 3.898376668750e-09-2.644488423546e+00
    4.747882485390e-06 1.909493491985e-02 8.257105946541e-06 5.153707799911e+03
    5.111840000000e+05 1.993030309677e-07 2.168682730043e+00 1.769512891769e-07
    9.824443048745e-01 2.256562500000e+02-1.469329585464e+00-7.507812730536e-09
    1.157191058795e-10 1.000000000000e+00 2.048000000000e+03 0.000000000000e+00
    2.400000000000e+00 0.000000000000e+00-1.117587089539e-08 2.900000000000e+01
    5.040000000000e+05 4.000000000000e+00
 2 19  4 12 22  0  0.0-1.874719746411e-04-9.436007530894e-12 0.000000000000e+00
    3.400000000000e+01-8.081250000000e+01 4.866274128422e-09 9.354921919648e-01
   -4.386529326439e-06 1.891057891771e-02 5.982816219330e-06 5.153686807632e+03
    5.112000000000e+05-2.738088369370e-07-2.172672991248e+00-1.210719347000e-07
    9.540867453368e-01 2.699375000000e+02-1.749815212587e+00-8.597143819834e-09
   -2.278666344171e-10 1.000000000000e+00 2.048000000000e+03 0.000000000000e+00
    2.400000000000e+00 0.000000000000e+00-2.048909664154e-08 3.400000000000e+01
    5.040000000000e+05 4.000000000000e+00
 1 19  4 12 22  0  0.0-2.004834823310e-04-8.185452315956e-12 0.000000000000e+00
    8.400000000000e+01-9.018750000000e+01 4.322680056975e-09 6.501964931223e-01
   -4.462897777557e-06 8.647741051391e-03 6.400048732758e-06 5.153659437180e+03
    5.112000000000e+05-2.048909664154e-08-2.104856159913e+00 1.303851604462e-07
    9.749453516901e-01 2.610312500000e+02 6.868784456672e-01-8.205341785421e-09
   -2.342954736326e-10 1.000000000000e+00 2.048000000000e+03 0.000000000000e+00
    2.400000000000e+00 0.000000000000e+00 5.587935447693e-09 8.400000000000e+01
    5.040000000000e+05 4.000000000000e+00
 3 19  4 12 22  0  0.0 1.881639473140e-04 3.410605131648e-13 0.000000000000e+00
    3.300000000000e+01-4.846875000000e+01 4.436970531918e-09-2.577959710598e-01
   -2.592802047729e-06 1.983842579648e-03 1.028925180435e-05 5.153543991089e+03
    5.112000000000e+05 1.862645149231e-09-1.062125246763e+00 7.450580596924e-08
    9.624618972127e-01 1.800625000000e+02 5.694909775394e-01-7.946759585863e-09
    1.867934949846e-10 1.000000000000e+00 2.048000000000e+03 0.000000000000e+00
    2.400000000000e+00 0.000000000000e+00 2.328306436539e-09 3.300000000000e+01
    5.040000000000e+05 4.000000000000e+00
 7 19  4 12 22  0  0.0-3.611668944359e-06-7.389644451905e-12 0.000000000000e+00
    4.000000000000e+01 2.846875000000e+01 4.775556063936e-09 5.058775399444e-02
    1.577660441399e-06 1.246144494507e-02 7.973983883858e-06 5.153592971802e+03
    5.112000000000e+05 7.078051567078e-08 1.046150968387e+00 1.788139343262e-07
    9.558368079025e-01 2.250312500000e+02-2.471274367434e+00-8.273201754918e-09
   -2.853690296227e-10 1.000000000000e+00 2.048000000000e+03 0.000000000000e+00
    2.400000000000e+00 0.000000000000e+00-1.117587089539e-08 4.000000000000e+01
    5.040000000000e+05 4.000000000000e+00
 8 19  4 12 22  0  0.0-1.396727748215e-04-1.364242052659e-12 0.000000000000e+00
    7.200000000000e+01 1.840625000000e+01 4.545189325379e-09 3.051304522807e+00
    1.015141606331e-06 4.402205464430e-03 3.669410943985e-06 5.153725431442e+03
    5.112000000000e+05-1.080334186554e-07 3.112142500518e+00-9.313225746155e-09
    9.704905876627e-01 3.151250000000e+02-2.721760841978e-01-8.226771249473e-09
    1.182192100189e-10 1.000000000000e+00 2.048000000000e+03 0.000000000000e+00
    2.400000000000e+00 0.000000000000e+00 5.122274160385e-09 7.200000000000e+01
    5.040000000000e+05 4.000000000000e+00
 5 19  4 12 22  0  0.0 1.139938831329e-06 0.000000000000e+00 0.000000000000e+00
    7.900000000000e+01-5.328125000000e+01 4.648407910562e-09-2.676311913968e+00
   -2.732500433922e-06 5.588344531134e-03 9.512528777122e-06 5.153664134979e+03
    5.112000000000e+05 4.470348358154e-08-1.088354020576e+00-2.793967723846e-08
    9.493284141047e-01 1.914062500000e+02 7.041772764043e-01-7.917829809393e-09
    2.025084352892e-10 1.000000000000e+00 2.048000000000e+03 0.000000000000e+00
    2.400000000000e+00 0.000000000000e+00-1.117587089539e-08 7.900000000000e+01
    5.040000000000e+05 4.000000000000e+00
 6 19  4 12 22  0  0.0 2.323063090444e-04-9.436007530894e-12 0.000000000000e+00
    5.600000000000e+01-9.715625000000e+01 4.208389582032e-09 8.295694036269e-01
   -5.140900611877e-06 1.621193485335e-03 5.826354026794e-06 5.153564872742e+03
    5.112000000000e+05 4.842877388000e-08-2.113138625689e+00-5.587935447693e-09
    9.746084592115e-01 2.764687500000e+02-1.113627454756e+00-8.062478691742e-09
   -1.889364413897e-10 1.000000000000e+00 2.048000000000e+03 0.000000000000e+00
    2.400000000000e+00 0.000000000000e+00 4.656612873077e-09 5.600000000000e+01
    5.040000000000e+05 4.000000000000e+00
24 19  4 12 22  0  0.0-6.468221545219e-05-5.684341886081e-13 0.000000000000e+00
    2.500000000000e+01 1.446875000000e+01 5.154500419918e-09 9.157158904424e-01
    6.575137376785e-07 8.257895591669e-03 7.720664143562e-06 5.153718940735e+03
    5.112000000000e+05-1.080334186554e-07 9.809417197715e-01 7.636845111847e-08
    9.390252985843e-01 2.199687500000e+02 6.072546131750e-01-8.401064223760e-09
   -3.410856361573e-10 1.000000000000e+00 2.048000000000e+03 0.000000000000e+00
    2.400000000000e+00 0.000000000000e+00 2.793967723846e-09 2.500000000000e+01
    5.040000000000e+05 4.000000000000e+00
16 19  4 12 22  0  0.0-3.220792859793e-05-2.728484105319e-12 0.000000000000e+00
    6.100000000000e+01 7.525000000000e+01 3.994094941515e-09-2.611818750586e+00
    3.634020686150e-06 1.082053454593e-02 7.808208465576e-06 5.153560190201e+03
    5.112000000000e+05 1.303851604462e-08 2.164693981496e+00-2.104789018631e-07
    9.835031430365e-01 2.431562500000e+02 5.655553958238e-01-7.734965049485e-09
    6.035965707914e-11 1.000000000000e+00 2.048000000000e+03 0.000000000000e+00
    2.400000000000e+00 0.000000000000e+00-1.071020960808e-08 6.100000000000e+01
    5.040000000000e+05 4.000000000000e+00
30 19  4 12 22  0  0.0-8.539669215679e-05-6.821210263297e-12 0.000000000000e+00
    3.700000000000e+01 2.212500000000e+01 5.045210153254e-09 4.983476518943e-02
    1.184642314911e-06 3.872720641084e-03 8.026137948036e-06 5.153600334167e+03
    5.112000000000e+05 7.450580596924e-08 1.074991990166e+00-1.490116119385e-08
    9.412928259959e-01 2.137187500000e+02-3.005920061207e+00-8.308560370603e-09
   -2.775115594704e-10 1.000000000000e+00 2.048000000000e+03 0.000000000000e+00
    2.400000000000e+00 0.000000000000e+00 3.725290298462e-09 3.700000000000e+01
    5.040000000000e+05 4.000000000000e+00
15 19  4 12 22  0  0.0-3.187069669366e-04 1.932676241267e-12 0.000000000000e+00
    4.300000000000e+01 1.581250000000e+01 5.418797143223e-09 1.939848421765e+00
    7.431954145432e-07 1.126064278651e-02 7.662922143936e-06 5.153663127899e+03
    5.112000000000e+05-2.700835466385e-07-1.086924301960e-01-1.024454832077e-07
    9.283678189546e-01 2.165937500000e+02 7.693901618342e-01-8.451066306548e-09
    1.889364413897e-10 1.000000000000e+00 2.048000000000e+03 0.000000000000e+00
    2.400000000000e+00 0.000000000000e+00-1.071020960808e-08 4.300000000000e+01
    5.040000000000e+05 4.000000000000e+00
14 19  4 12 22  0  0.0-8.472613990307e-05 1.477928890381e-12 0.000000000000e+00
    4.000000000000e+01 1.318750000000e+01 4.540189117101e-09 2.574789591990e+00
    6.891787052155e-07 1.043992291670e-02 7.519498467445e-06 5.153683094025e+03
    5.112000000000e+05 8.381903171539e-08 6.256605554449e-02-1.080334186554e-07
    9.609516932323e-01 2.329687500000e+02-1.944637402593e+00-7.833183426389e-09
    1.042900583853e-10 1.000000000000e+00 2.048000000000e+03 0.000000000000e+00
    2.400000000000e+00 0.000000000000e+00-9.778887033463e-09 4.000000000000e+01
    5.040000000000e+05 4.000000000000e+00
10 19  4 12 22  0  0.0 7.441546767950e-05-9.549694368616e-12 0.000000000000e+00
    2.600000000000e+01-3.406250000000e+01 4.318037006431e-09-1.433804419298e+00
   -1.881271600723e-06 4.467407125048e-03 9.883195161819e-06 5.153662101746e+03
    5.112000000000e+05 2.607703208923e-08-1.065376533918e+00-1.993030309677e-07
    9.624917436673e-01 1.920625000000e+02-2.703785083936e+00-7.794610391095e-09
    1.467918287546e-10 1.000000000000e+00 2.048000000000e+03 0.000000000000e+00
    2.400000000000e+00 0.000000000000e+00 1.862645149231e-09 2.600000000000e+01
    5.040000000000e+05 4.000000000000e+00
